BANDWAGON-2 OBJECT D    
1 62380U 24247D   26068.52261193  .00011259  00000+0  40119-3 0  9994
2 62380  44.9954 115.6710 0003488 351.1453   8.9368 15.29076102 67732
STARLINK-36430          
1 67326U 26002X   26068.10100734  .00029345  00000+0  10714-2 0  9999
2 67326  43.0007 328.1775 0003426 244.1670 115.8829 15.27585781 11153
